{
    "links": {
        "self": "http://www.neowsapp.com/rest/v1/neo/3836944?api_key=iIulBulltgU6a56xZRHN4H3l9WmuAYTsLGpBGhQ2"
    },
    "id": "3836944",
    "neo_reference_id": "3836944",
    "name": "(2018 YN)",
    "designation": "2018 YN",
    "nasa_jpl_url": "http://ssd.jpl.nasa.gov/sbdb.cgi?sstr=3836944",
    "absolute_magnitude_h": 23.0,
    "estimated_diameter": {
        "kilometers": {
            "estimated_diameter_min": 0.0667659413,
            "estimated_diameter_max": 0.1492931834
        },
        "meters": {
            "estimated_diameter_min": 66.7659413495,
            "estimated_diameter_max": 149.2931834393
        },
        "miles": {
            "estimated_diameter_min": 0.0414864197,
            "estimated_diameter_max": 0.0927664547
        },
        "feet": {
            "estimated_diameter_min": 219.0483710172,
            "estimated_diameter_max": 489.807047955
        }
    },
    "is_potentially_hazardous_asteroid": false,
    "close_approach_data": [
        {
            "close_approach_date": "2018-10-14",
            "close_approach_date_full": "2018-Oct-14 21:49",
            "epoch_date_close_approach": 1539553740000,
            "relative_velocity": {
                "kilometers_per_second": "7.3035094502",
                "kilometers_per_hour": "26292.6340208876",
                "miles_per_hour": "16337.2202892565"
            },
            "miss_distance": {
                "astronomical": "0.1009692196",
                "lunar": "39.2770264244",
                "kilometers": "15104780.187722252",
                "miles": "9385675.1891089976"
            },
            "orbiting_body": "Venus"
        },
        {
            "close_approach_date": "2018-11-13",
            "close_approach_date_full": "2018-Nov-13 02:05",
            "epoch_date_close_approach": 1542074700000,
            "relative_velocity": {
                "kilometers_per_second": "11.2792032353",
                "kilometers_per_hour": "40605.1316470771",
                "miles_per_hour": "25230.4497170408"
            },
            "miss_distance": {
                "astronomical": "0.1047406238",
                "lunar": "40.7441026582",
                "kilometers": "15668974.222951306",
                "miles": "9736249.1062717828"
            },
            "orbiting_body": "Earth"
        }
    ],
    "orbital_data": {
        "orbit_id": "2",
        "orbit_determination_date": "2019-01-09 07:14:12",
        "first_observation_date": "2018-12-17",
        "last_observation_date": "2019-01-08",
        "data_arc_in_days": 22,
        "observations_used": 12,
        "orbit_uncertainty": "7",
        "minimum_orbit_intersection": ".0375636",
        "jupiter_tisserand_invariant": "4.052",
        "epoch_osculation": "2459000.5",
        "eccentricity": ".5164246443472923",
        "semi_major_axis": "1.684963943529244",
        "inclination": "8.544406837624615",
        "ascending_node_longitude": "50.59376009275292",
        "orbital_period": "798.8851431284572",
        "perihelion_distance": ".8148070382541432",
        "perihelion_argument": "315.4540067748812",
        "aphelion_distance": "2.555120848804345",
        "perihelion_time": "2459201.847136593278",
        "mean_anomaly": "269.2673461297243",
        "mean_motion": ".4506279821279811",
        "equinox": "J2000",
        "orbit_class": {
            "orbit_class_type": "APO",
            "orbit_class_description": "Near-Earth asteroid orbits which cross the Earth’s orbit similar to that of 1862 Apollo",
            "orbit_class_range": "a (semi-major axis) > 1.0 AU; q (perihelion) < 1.017 AU"
        }
    },
    "is_sentry_object": false
}